{"type": "FeatureCollection", "features": [ {"type": "Feature", "properties": {"norad_id": 66573, "name": "STARLINK-35650", "group": "last-30-days", "lat": -38.922827554146906, "lon": 93.3190055672656, "alt_km": 391.5844860435436, "timestamp": "2025-12-07T05:38:08.685121+00:00", "meta": {"OBJECT_NAME": "STARLINK-35650", "OBJECT_ID": "2025-268S", "EPOCH": "2025-12-06T14:00:01.999872", "MEAN_MOTION": 15.62103954, "ECCENTRICITY": 0.00014799, "INCLINATION": 42.9996, "RA_OF_ASC_NODE": 157.2583, "ARG_OF_PERICENTER": 260.6113, "MEAN_ANOMALY": 327.6015, "EPHEMERIS_TYPE": 0, "CLASSIFICATION_TYPE": "U", "NORAD_CAT_ID": 66573, "ELEMENT_SET_NO": 999, "REV_AT_EPOCH": 368, "BSTAR": -0.025198173, "MEAN_MOTION_DOT": -0.01995489, "MEAN_MOTION_DDOT": 0}, "tle": {"line1": "1 66573U 25268S   25340.58335648 -.01995489  00000+0 -25198-1 0  9998", "line2": "2 66573  42.9996 157.2583 0001479 260.6113 327.6015 15.62103954  3686"}}, "geometry": {"type": "Point", "coordinates": [93.3190055672656, -38.922827554146906]}}, {"type": "Feature", "properties": {"norad_id": 66574, "name": "STARLINK-35812", "group": "last-30-days", "lat": -38.250262362811476, "lon": 95.60310497547688, "alt_km": 391.65741613336013, "timestamp": "2025-12-07T05:38:08.685131+00:00", "meta": {"OBJECT_NAME": "STARLINK-35812", "OBJECT_ID": "2025-268T", "EPOCH": "2025-12-06T14:00:01.999872", "MEAN_MOTION": 15.62106506, "ECCENTRICITY": 0.00014084, "INCLINATION": 42.9997, "RA_OF_ASC_NODE": 157.2532, "ARG_OF_PERICENTER": 259.4073, "MEAN_ANOMALY": 330.7243, "EPHEMERIS_TYPE": 0, "CLASSIFICATION_TYPE": "U", "NORAD_CAT_ID": 66574, "ELEMENT_SET_NO": 999, "REV_AT_EPOCH": 368, "BSTAR": -0.025283087, "MEAN_MOTION_DOT": -0.02001505, "MEAN_MOTION_DDOT": 0}, "tle": {"line1": "1 66574U 25268T   25340.58335648 -.02001505  00000+0 -25283-1 0  9992", "line2": "2 66574  42.9997 157.2532 0001408 259.4073 330.7243 15.62106506  3689"}}, "geometry": {"type": "Point", "coordinates": [95.60310497547688, -38.250262362811476]}}, {"type": "Feature", "properties": {"norad_id": 66575, "name": "STARLINK-35810", "group": "last-30-days", "lat": -37.531864877918515, "lon": 97.85097776017949, "alt_km": 391.5954705702952, "timestamp": "2025-12-07T05:38:08.685140+00:00", "meta": {"OBJECT_NAME": "STARLINK-35810", "OBJECT_ID": "2025-268U", "EPOCH": "2025-12-06T14:00:01.999872", "MEAN_MOTION": 15.62107609, "ECCENTRICITY": 0.00015145, "INCLINATION": 42.9998, "RA_OF_ASC_NODE": 157.2486, "ARG_OF_PERICENTER": 258.1691, "MEAN_ANOMALY": 333.8752, "EPHEMERIS_TYPE": 0, "CLASSIFICATION_TYPE": "U", "NORAD_CAT_ID": 66575, "ELEMENT_SET_NO": 999, "REV_AT_EPOCH": 368, "BSTAR": -0.025258808, "MEAN_MOTION_DOT": -0.01999977, "MEAN_MOTION_DDOT": 0}, "tle": {"line1": "1 66575U 25268U   25340.58335648 -.01999977  00000+0 -25259-1 0  9994", "line2": "2 66575  42.9998 157.2486 0001514 258.1691 333.8752 15.62107609  3683"}}, "geometry": {"type": "Point", "coordinates": [97.85097776017949, -37.531864877918515]}}, {"type": "Feature", "properties": {"norad_id": 66576, "name": "STARLINK-35814", "group": "last-30-days", "lat": -36.77116743252073, "lon": 100.05525735608111, "alt_km": 391.6917479418362, "timestamp": "2025-12-07T05:38:08.685150+00:00", "meta": {"OBJECT_NAME": "STARLINK-35814", "OBJECT_ID": "2025-268V", "EPOCH": "2025-12-06T14:00:01.999872", "MEAN_MOTION": 15.62103117, "ECCENTRICITY": 0.00014157, "INCLINATION": 42.9998, "RA_OF_ASC_NODE": 157.2439, "ARG_OF_PERICENTER": 255.1686, "MEAN_ANOMALY": 338.7965, "EPHEMERIS_TYPE": 0, "CLASSIFICATION_TYPE": "U", "NORAD_CAT_ID": 66576, "ELEMENT_SET_NO": 999, "REV_AT_EPOCH": 368, "BSTAR": -0.025190537, "MEAN_MOTION_DOT": -0.01994852, "MEAN_MOTION_DDOT": 0}, "tle": {"line1": "1 66576U 25268V   25340.58335648 -.01994852  00000+0 -25191-1 0  9997", "line2": "2 66576  42.9998 157.2439 0001415 255.1686 338.7965 15.62103117  3683"}}, "geometry": {"type": "Point", "coordinates": [100.05525735608111, -36.77116743252073]}}, {"type": "Feature", "properties": {"norad_id": 66577, "name": "STARLINK-35815", "group": "last-30-days", "lat": -35.972124788543965, "lon": 102.21012793371231, "alt_km": 391.61930813599065, "timestamp": "2025-12-07T05:38:08.685162+00:00", "meta": {"OBJECT_NAME": "STARLINK-35815", "OBJECT_ID": "2025-268W", "EPOCH": "2025-12-06T14:00:01.999872", "MEAN_MOTION": 15.62103909, "ECCENTRICITY": 0.000149, "INCLINATION": 42.9996, "RA_OF_ASC_NODE": 157.2392, "ARG_OF_PERICENTER": 256.4326, "MEAN_ANOMALY": 339.4495, "EPHEMERIS_TYPE": 0, "CLASSIFICATION_TYPE": "U", "NORAD_CAT_ID": 66577, "ELEMENT_SET_NO": 999, "REV_AT_EPOCH": 368, "BSTAR": -0.025215512, "MEAN_MOTION_DOT": -0.01996697, "MEAN_MOTION_DDOT": 0}, "tle": {"line1": "1 66577U 25268W   25340.58335648 -.01996697  00000+0 -25216-1 0  9995", "line2": "2 66577  42.9996 157.2392 0001490 256.4326 339.4495 15.62103909  3683"}}, "geometry": {"type": "Point", "coordinates": [102.21012793371231, -35.972124788543965]}}, {"type": "Feature", "properties": {"norad_id": 66578, "name": "STARLINK-35743", "group": "last-30-days", "lat": -35.1341456315568, "lon": 104.32351429407791, "alt_km": 391.63785521374757, "timestamp": "2025-12-07T05:38:08.685174+00:00", "meta": {"OBJECT_NAME": "STARLINK-35743", "OBJECT_ID": "2025-268X", "EPOCH": "2025-12-06T14:00:01.999872", "MEAN_MOTION": 15.62104372, "ECCENTRICITY": 0.00014448, "INCLINATION": 42.9996, "RA_OF_ASC_NODE": 157.2343, "ARG_OF_PERICENTER": 255.8923, "MEAN_ANOMALY": 341.9058, "EPHEMERIS_TYPE": 0, "CLASSIFICATION_TYPE": "U", "NORAD_CAT_ID": 66578, "ELEMENT_SET_NO": 999, "REV_AT_EPOCH": 368, "BSTAR": -0.025205338, "MEAN_MOTION_DOT": -0.01995989, "MEAN_MOTION_DDOT": 0}, "tle": {"line1": "1 66578U 25268X   25340.58335648 -.01995989  00000+0 -25205-1 0  9997", "line2": "2 66578  42.9996 157.2343 0001444 255.8923 341.9058 15.62104372  3683"}}, "geometry": {"type": "Point", "coordinates": [104.32351429407791, -35.1341456315568]}}, {"type": "Feature", "properties": {"norad_id": 66579, "name": "STARLINK-35868", "group": "last-30-days", "lat": -34.26174062094191, "lon": 106.3889143525415, "alt_km": 391.51959381732286, "timestamp": "2025-12-07T05:38:08.685185+00:00", "meta": {"OBJECT_NAME": "STARLINK-35868", "OBJECT_ID": "2025-268Y", "EPOCH": "2025-12-06T14:00:01.999872", "MEAN_MOTION": 15.6210651, "ECCENTRICITY": 0.00015425, "INCLINATION": 42.9997, "RA_OF_ASC_NODE": 157.2291, "ARG_OF_PERICENTER": 258.6294, "MEAN_ANOMALY": 341.0845, "EPHEMERIS_TYPE": 0, "CLASSIFICATION_TYPE": "U", "NORAD_CAT_ID": 66579, "ELEMENT_SET_NO": 999, "REV_AT_EPOCH": 368, "BSTAR": -0.025248415, "MEAN_MOTION_DOT": -0.01999201, "MEAN_MOTION_DDOT": 0}, "tle": {"line1": "1 66579U 25268Y   25340.58335648 -.01999201  00000+0 -25248-1 0  9996", "line2": "2 66579  42.9997 157.2291 0001542 258.6294 341.0845 15.62106510  3689"}}, "geometry": {"type": "Point", "coordinates": [106.3889143525415, -34.26174062094191]}}, {"type": "Feature", "properties": {"norad_id": 66580, "name": "STARLINK-35872", "group": "last-30-days", "lat": -33.35396574402564, "lon": 108.41525828178624, "alt_km": 391.577106756783, "timestamp": "2025-12-07T05:38:08.685198+00:00", "meta": {"OBJECT_NAME": "STARLINK-35872", "OBJECT_ID": "2025-268Z", "EPOCH": "2025-12-06T14:00:01.999872", "MEAN_MOTION": 15.62106655, "ECCENTRICITY": 0.00014197, "INCLINATION": 42.9999, "RA_OF_ASC_NODE": 157.2252, "ARG_OF_PERICENTER": 258.013, "MEAN_ANOMALY": 343.6185, "EPHEMERIS_TYPE": 0, "CLASSIFICATION_TYPE": "U", "NORAD_CAT_ID": 66580, "ELEMENT_SET_NO": 999, "REV_AT_EPOCH": 368, "BSTAR": -0.025245476, "MEAN_MOTION_DOT": -0.01998914, "MEAN_MOTION_DDOT": 0}, "tle": {"line1": "1 66580U 25268Z   25340.58335648 -.01998914  00000+0 -25245-1 0  9995", "line2": "2 66580  42.9999 157.2252 0001419 258.0130 343.6185 15.62106655  3681"}}, "geometry": {"type": "Point", "coordinates": [108.41525828178624, -33.35396574402564]}}, {"type": "Feature", "properties": {"norad_id": 66581, "name": "STARLINK-35744", "group": "last-30-days", "lat": -32.41332675499076, "lon": 110.3977231985024, "alt_km": 391.4593183571551, "timestamp": "2025-12-07T05:38:08.685209+00:00", "meta": {"OBJECT_NAME": "STARLINK-35744", "OBJECT_ID": "2025-268AA", "EPOCH": "2025-12-06T14:00:01.999872", "MEAN_MOTION": 15.62105341, "ECCENTRICITY": 0.00015333, "INCLINATION": 42.9998, "RA_OF_ASC_NODE": 157.2196, "ARG_OF_PERICENTER": 259.438, "MEAN_ANOMALY": 344.1097, "EPHEMERIS_TYPE": 0, "CLASSIFICATION_TYPE": "U", "NORAD_CAT_ID": 66581, "ELEMENT_SET_NO": 999, "REV_AT_EPOCH": 363, "BSTAR": -0.02521126, "MEAN_MOTION_DOT": -0.01996533, "MEAN_MOTION_DDOT": 0}, "tle": {"line1": "1 66581U 25268AA  25340.58335648 -.01996533  00000+0 -25211-1 0  9994", "line2": "2 66581  42.9998 157.2196 0001533 259.4380 344.1097 15.62105341  3631"}}, "geometry": {"type": "Point", "coordinates": [110.3977231985024, -32.41332675499076]}}, {"type": "Feature", "properties": {"norad_id": 66582, "name": "STARLINK-35746", "group": "last-30-days", "lat": -31.443404955989436, "lon": 112.33591111688115, "alt_km": 391.4717765663763, "timestamp": "2025-12-07T05:38:08.685221+00:00", "meta": {"OBJECT_NAME": "STARLINK-35746", "OBJECT_ID": "2025-268AB", "EPOCH": "2025-12-06T14:00:01.999872", "MEAN_MOTION": 15.62106265, "ECCENTRICITY": 0.00014645, "INCLINATION": 42.9993, "RA_OF_ASC_NODE": 157.2146, "ARG_OF_PERICENTER": 259.7665, "MEAN_ANOMALY": 345.7001, "EPHEMERIS_TYPE": 0, "CLASSIFICATION_TYPE": "U", "NORAD_CAT_ID": 66582, "ELEMENT_SET_NO": 999, "REV_AT_EPOCH": 368, "BSTAR": -0.025252918, "MEAN_MOTION_DOT": -0.01999438, "MEAN_MOTION_DDOT": 0}, "tle": {"line1": "1 66582U 25268AB  25340.58335648 -.01999438  00000+0 -25253-1 0  9998", "line2": "2 66582  42.9993 157.2146 0001464 259.7665 345.7001 15.62106265  3687"}}, "geometry": {"type": "Point", "coordinates": [112.33591111688115, -31.443404955989436]}}]}